     2              NAVIGATION DATA                         RINEX VERSION / TYPE
CCRINEXN V1.6.0 UX  CDDIS               08-FEB-17 13:19     PGM / RUN BY / DATE 
IGS BROADCAST EPHEMERIS FILE                                COMMENT             
    0.8382D-08 -0.7451D-08 -0.5960D-07  0.5960D-07          ION ALPHA           
    0.8806D+05 -0.3277D+05 -0.1966D+06  0.1966D+06          ION BETA            
   -0.279396772385D-08-0.133226762955D-13   503808     1935 DELTA-UTC: A0,A1,T,W
    18                                                      LEAP SECONDS        
                                                            END OF HEADER       
27 17  2  8  2  0  0.0 0.206147320569D-03 0.579802872380D-11 0.000000000000D+00
    0.320000000000D+02-0.853750000000D+02 0.456018995022D-08 0.183869757272D+01
   -0.431388616562D-05 0.433125346899D-02 0.260025262833D-05 0.515366181755D+04
    0.266400000000D+06-0.651925802231D-07-0.156960696708D+01 0.178813934326D-06
    0.973586496826D+00 0.336062500000D+03 0.277585166742D+00-0.841892211047D-08
   -0.287511976028D-09 0.100000000000D+01 0.193500000000D+04 0.000000000000D+00
    0.200000000000D+01 0.000000000000D+00 0.186264514923D-08 0.320000000000D+02
    0.261240000000D+06 0.400000000000D+01 0.000000000000D+00 0.000000000000D+00
28 17  2  8  2  0  0.0 0.588129274547D-03 0.295585778076D-11 0.000000000000D+00
    0.230000000000D+02 0.125187500000D+03 0.397123684653D-08 0.260254842597D+01
    0.629574060440D-05 0.199890193762D-01 0.371970236301D-05 0.515364553833D+04
    0.266400000000D+06 0.191852450371D-06-0.253244167873D+01-0.201165676117D-06
    0.989106805389D+00 0.316312500000D+03-0.157613791469D+01-0.777532387345D-08
    0.204294223960D-09 0.100000000000D+01 0.193500000000D+04 0.000000000000D+00
    0.280000000000D+01 0.000000000000D+00-0.111758708954D-07 0.230000000000D+02
    0.263538000000D+06 0.400000000000D+01 0.000000000000D+00 0.000000000000D+00
29 17  2  8  2  0  0.0 0.628181733191D-03-0.250111042988D-11 0.000000000000D+00
    0.800000000000D+02-0.791562500000D+02 0.426624913497D-08-0.228988082474D+01
   -0.420399010181D-05 0.652974471450D-03 0.295974314213D-05 0.515367970467D+04
    0.266400000000D+06-0.856816768646D-07-0.150819370415D+01-0.689178705216D-07
    0.979745096670D+00 0.328750000000D+03-0.180785720714D+00-0.821677083292D-08
   -0.295012288446D-09 0.100000000000D+01 0.193500000000D+04 0.000000000000D+00
    0.200000000000D+01 0.000000000000D+00-0.102445483208D-07 0.800000000000D+02
    0.259200000000D+06 0.400000000000D+01 0.000000000000D+00 0.000000000000D+00
30 17  2  8  2  0  0.0 0.160635448992D-03 0.000000000000D+00 0.000000000000D+00
    0.570000000000D+02 0.675625000000D+02 0.446840041253D-08-0.998612579354D+00
    0.338442623615D-05 0.242824759334D-02 0.123418867588D-04 0.515372505951D+04
    0.266400000000D+06 0.745058059692D-08 0.268649003484D+01-0.391155481338D-07
    0.949435787903D+00 0.133000000000D+03 0.307071764029D+01-0.794925969000D-08
   -0.214294640518D-09 0.100000000000D+01 0.193500000000D+04 0.000000000000D+00
    0.200000000000D+01 0.000000000000D+00 0.372529029846D-08 0.570000000000D+02
    0.259218000000D+06 0.400000000000D+01 0.000000000000D+00 0.000000000000D+00
31 17  2  8  2  0  0.0 0.220376998186D-03-0.227373675443D-11 0.000000000000D+00
    0.108000000000D+03 0.621250000000D+02 0.421624705218D-08-0.122476848212D+01
    0.289641320705D-05 0.853838236071D-02 0.110901892185D-04 0.515364842033D+04
    0.266400000000D+06-0.223517417908D-07 0.265647624869D+01-0.121071934700D-06
    0.968439860322D+00 0.170687500000D+03-0.289070241073D+00-0.780925385820D-08
   -0.126790995640D-09 0.100000000000D+01 0.193500000000D+04 0.000000000000D+00
    0.200000000000D+01 0.000000000000D+00-0.135041773319D-07 0.108000000000D+03
    0.259200000000D+06 0.400000000000D+01 0.000000000000D+00 0.000000000000D+00
32 17  2  8  2  0  0.0-0.311849173158D-03-0.139834810398D-10 0.000000000000D+00
    0.490000000000D+02-0.166875000000D+02 0.484127308703D-08 0.264245022756D+01
   -0.709667801857D-06 0.743948156014D-03 0.641494989395D-05 0.515368554878D+04
    0.266400000000D+06-0.372529029846D-07 0.156994772166D+01 0.372529029846D-08
    0.957967533456D+00 0.251656250000D+03-0.280131205083D+01-0.815569686037D-08
   -0.268582616115D-09 0.100000000000D+01 0.193500000000D+04 0.000000000000D+00
    0.200000000000D+01 0.000000000000D+00 0.465661287308D-09 0.490000000000D+02
    0.259200000000D+06 0.400000000000D+01 0.000000000000D+00 0.000000000000D+00
 9 17  2  8  3  0  0.0 0.299310311675D-03 0.750333128963D-11 0.000000000000D+00
    0.109000000000D+03-0.160937500000D+02 0.498270754977D-08 0.245107367777D+01
   -0.778585672379D-06 0.918165198527D-03 0.617466866970D-05 0.515368526650D+04
    0.270000000000D+06 0.242143869400D-07 0.156726254138D+01 0.558793544769D-07
    0.953442381125D+00 0.255593750000D+03 0.176200519400D+01-0.820927052050D-08
   -0.342157109360D-09 0.100000000000D+01 0.193500000000D+04 0.000000000000D+00
    0.280000000000D+01 0.000000000000D+00 0.139698386192D-08 0.109000000000D+03
    0.259200000000D+06 0.600000000000D+01 0.000000000000D+00 0.000000000000D+00
14 17  2  8  3 59 44.0-0.578383915126D-04-0.170530256582D-11 0.000000000000D+00
    0.500000000000D+01-0.202500000000D+02 0.461769234542D-08 0.241888857155D+01
   -0.105984508991D-05 0.867698341608D-02 0.683404505253D-05 0.515361742592D+04
    0.273584000000D+06 0.465661287308D-07 0.165313758521D+01-0.109896063805D-06
    0.962111152363D+00 0.247187500000D+03-0.195709832228D+01-0.794318800852D-08
   -0.341442793892D-09 0.100000000000D+01 0.193500000000D+04 0.000000000000D+00
    0.200000000000D+01 0.000000000000D+00-0.931322574616D-08 0.500000000000D+01
    0.268560000000D+06 0.400000000000D+01 0.000000000000D+00 0.000000000000D+00
17 17  2  8  3 59 44.0-0.191881787032D-03 0.125055521494D-11 0.000000000000D+00
    0.130000000000D+02-0.103281250000D+03 0.438411118726D-08 0.272440122771D+01
   -0.528059899807D-05 0.116853457876D-01 0.207498669624D-05 0.515357833862D+04
    0.273584000000D+06 0.912696123123D-07-0.151826263136D+01-0.121071934700D-06
    0.978672492449D+00 0.345250000000D+03-0.186622021858D+01-0.813033866124D-08
   -0.349300264044D-09 0.100000000000D+01 0.193500000000D+04 0.000000000000D+00
    0.200000000000D+01 0.000000000000D+00-0.107102096081D-07 0.130000000000D+02
    0.268950000000D+06 0.400000000000D+01 0.000000000000D+00 0.000000000000D+00
18 17  2  8  3 59 44.0 0.597359146923D-03 0.261479726760D-11 0.000000000000D+00
    0.160000000000D+02 0.308125000000D+02 0.530486382601D-08-0.199515188048D+01
    0.160187482834D-05 0.175622877432D-01 0.784732401371D-05 0.515373837471D+04
    0.273584000000D+06 0.324100255966D-06 0.487860368154D+00 0.167638063431D-07
    0.925627777781D+00 0.206750000000D+03-0.183329194267D+01-0.813676750045D-08
    0.531450708484D-09 0.100000000000D+01 0.193500000000D+04 0.000000000000D+00
    0.200000000000D+01 0.000000000000D+00-0.111758708954D-07 0.160000000000D+02
    0.272106000000D+06 0.400000000000D+01 0.000000000000D+00 0.000000000000D+00
 1 17  2  8  4  0  0.0 0.487440265715D-04 0.909494701773D-12 0.000000000000D+00
    0.440000000000D+02-0.926250000000D+02 0.414302971667D-08 0.659628338522D+00
   -0.470131635666D-05 0.621603929903D-02 0.116638839245D-04 0.515370375633D+04
    0.273600000000D+06-0.335276126862D-07-0.511755773002D+00 0.106170773506D-06
    0.966801295520D+00 0.155125000000D+03 0.543537412264D+00-0.788997150613D-08
   -0.117862052285D-10 0.100000000000D+01 0.193500000000D+04 0.000000000000D+00
    0.200000000000D+01 0.000000000000D+00 0.512227416039D-08 0.440000000000D+02
    0.266400000000D+06 0.400000000000D+01 0.000000000000D+00 0.000000000000D+00
 2 17  2  8  4  0  0.0 0.479663722217D-03-0.670752342558D-11 0.000000000000D+00
    0.650000000000D+02-0.113906250000D+03 0.463805033627D-08 0.106795687125D+01
   -0.584684312344D-05 0.165924455505D-01 0.116508454084D-04 0.515373807526D+04
    0.273600000000D+06-0.298023223877D-06-0.562792193731D+00 0.577419996262D-07
    0.945649890502D+00 0.155000000000D+03-0.202531148007D+01-0.829927426951D-08
   -0.121433629627D-09 0.100000000000D+01 0.193500000000D+04 0.000000000000D+00
    0.200000000000D+01 0.000000000000D+00-0.204890966415D-07 0.650000000000D+02
    0.266400000000D+06 0.000000000000D+00 0.000000000000D+00 0.000000000000D+00
 3 17  2  8  4  0  0.0-0.107247382402D-03-0.454747350886D-12 0.000000000000D+00
    0.500000000000D+02 0.212187500000D+02 0.475305512668D-08-0.322114677072D+00
    0.101514160633D-05 0.482715317048D-03 0.816397368908D-05 0.515379962921D+04
    0.273600000000D+06 0.316649675369D-07 0.529874003173D+00 0.372529029846D-07
    0.959864609048D+00 0.221218750000D+03 0.467694054135D+00-0.808390815579D-08
    0.477162732886D-09 0.100000000000D+01 0.193500000000D+04 0.000000000000D+00
    0.200000000000D+01 0.000000000000D+00 0.186264514923D-08 0.500000000000D+02
    0.272550000000D+06 0.400000000000D+01 0.000000000000D+00 0.000000000000D+00
 4 17  2  8  4  0  0.0-0.260208267719D-03 0.341060513165D-12 0.000000000000D+00
    0.790000000000D+02 0.108187500000D+03 0.541129683081D-08-0.234392869159D+01
    0.542774796486D-05 0.881461170502D-02 0.457279384136D-05 0.515372608948D+04
    0.273600000000D+06 0.141561031342D-06-0.258717572292D+01-0.428408384323D-07
    0.982695520093D+00 0.302125000000D+03 0.873126921927D+00-0.796854620765D-08
    0.377158567311D-09 0.100000000000D+01 0.193500000000D+04 0.000000000000D+00
    0.290000000000D+01 0.630000000000D+02-0.195577740669D-07 0.790000000000D+02
    0.266400000000D+06 0.400000000000D+01 0.000000000000D+00 0.000000000000D+00
